NORAD_CAT_ID,OBJECT_NAME,OBJECT_TYPE,EPOCH,MEAN_MOTION,ECCENTRICITY,INCLINATION,RA_OF_ASC_NODE,ARG_OF_PERICENTER,MEAN_ANOMALY,BSTAR,MEAN_MOTION_DOT,MEAN_MOTION_DDOT,TLE_LINE0,TLE_LINE1,TLE_LINE2,SEMIMAJOR_AXIS,PERIOD,APOGEE,PERIGEE,DECAYED
55391.0,STARLINK-5077,PAYLOAD,2023-09-07 07:39:22,14.9751761,0.0003092,70.0002,208.627,269.9443,90.1362,-2.688e-05,-4.06e-06,0.0,0 STARLINK-5077,1 55391U 23014A   23250.31900586 -.00000406  00000-0 -26880-4 0  9997,2 55391  70.0002 208.6270 0003092 269.9443  90.1362 14.97517610 34188,6952.706,96.159,576.721,572.421,0.0
55391.0,STARLINK-5077,PAYLOAD,2023-09-08 02:53:35,14.97525936,0.0003092,70.0,206.6087,268.9824,91.098,-5.0527e-05,-6.83e-06,0.0,0 STARLINK-5077,1 55391U 23014A   23251.12055190 -.00000683  00000-0 -50527-4 0  9991,2 55391  70.0000 206.6087 0003092 268.9824  91.0980 14.97525936 34302,6952.681,96.159,576.695,572.396,0.0
55391.0,STARLINK-5077,PAYLOAD,2023-09-08 06:05:57,14.97527266,0.0003014,70.0003,206.272,266.0205,94.0609,-2.4486e-05,-3.78e-06,0.0,0 STARLINK-5077,1 55391U 23014A   23251.25414162 -.00000378  00000-0 -24486-4 0  9999,2 55391  70.0003 206.2720 0003014 266.0205  94.0609 14.97527266 35266,6952.676,96.159,576.637,572.446,0.0
55391.0,STARLINK-5077,PAYLOAD,2023-09-09 02:56:23,14.97523124,0.0002909,70.0004,204.0868,272.4652,87.6173,9.123e-05,9.74e-06,0.0,0 STARLINK-5077,1 55391U 23014A   23252.12249049  .00000974  00000-0  91230-4 0  9997,2 55391  70.0004 204.0868 0002909 272.4652  87.6173 14.97523124 34458,6952.689,96.159,576.577,572.532,0.0
55391.0,STARLINK-5077,PAYLOAD,2023-09-09 06:08:45,14.97516126,0.0002641,70.0008,203.7503,268.5149,91.5707,0.00011346,1.234e-05,0.0,0 STARLINK-5077,1 55391U 23014A   23252.25608609  .00001234  00000-0  11346-3 0  9991,2 55391  70.0008 203.7503 0002641 268.5149  91.5707 14.97516126 35412,6952.711,96.159,576.412,572.74,0.0
55391.0,STARLINK-5077,PAYLOAD,2023-09-09 14:09:42,14.9750617,0.0002668,70.0007,202.9088,273.3809,86.7045,0.00028125,3.194e-05,0.0,0 STARLINK-5077,1 55391U 23014A   23252.59006949  .00003194  00000-0  28125-3 0  9997,2 55391  70.0007 202.9088 0002668 273.3809  86.7045 14.97506170 34526,6952.742,96.16,576.462,572.752,0.0
55391.0,STARLINK-5077,PAYLOAD,2023-09-10 01:22:59,14.97526108,0.0002877,70.0008,201.7318,265.8645,94.2185,3.7051e-05,3.41e-06,0.0,0 STARLINK-5077,1 55391U 23014A   23253.05763340  .00000341  00000-0  37051-4 0  9994,2 55391  70.0008 201.7318 0002877 265.8645  94.2185 14.97526108 34595,6952.68,96.159,576.545,572.545,0.0
55391.0,STARLINK-5077,PAYLOAD,2023-09-10 06:11:33,14.97524254,0.0002893,70.0009,201.2271,259.1872,100.8961,2.2891e-05,1.75e-06,0.0,0 STARLINK-5077,1 55391U 23014A   23253.25802193  .00000175  00000-0  22891-4 0  9997,2 55391  70.0009 201.2271 0002893 259.1872 100.8961 14.97524254 35569,6952.686,96.159,576.562,572.539,0.0
55391.0,STARLINK-5077,PAYLOAD,2023-09-11 03:01:58,14.97517407,0.0002926,70.0009,199.0411,267.9623,92.1201,-1.3371e-05,-2.48e-06,0.0,0 STARLINK-5077,1 55391U 23014A   23254.12637650 -.00000248  00000-0 -13371-4 0  9994,2 55391  70.0009 199.0411 0002926 267.9623  92.1201 14.97517407 34759,6952.707,96.159,576.606,572.538,0.0
55391.0,STARLINK-5077,PAYLOAD,2023-09-11 14:15:16,14.97520798,0.0002919,70.0009,197.8627,270.9248,89.1576,3.5645e-07,-8.8e-07,0.0,0 STARLINK-5077,1 55391U 23014A   23254.59394665 -.00000088  00000-0  35645-6 0  9992,2 55391  70.0009 197.8627 0002919 270.9248  89.1576 14.97520798 35763,6952.696,96.159,576.591,572.532,0.0
55391.0,STARLINK-5077,PAYLOAD,2023-09-12 01:28:34,14.97522277,0.0003066,70.0008,196.6853,270.6493,89.4315,6.2919e-05,6.43e-06,0.0,0 STARLINK-5077,1 55391U 23014A   23255.06151547  .00000643  00000-0  62919-4 0  9993,2 55391  70.0008 196.6853 0003066 270.6493  89.4315 14.97522277 34894,6952.692,96.159,576.689,572.425,0.0
55391.0,STARLINK-5077,PAYLOAD,2023-09-12 06:17:08,14.97525466,0.0003009,70.0008,196.1807,269.0139,91.0675,0.00011627,1.267e-05,0.0,0 STARLINK-5077,1 55391U 23014A   23255.26189976  .00001267  00000-0  11627-3 0  9994,2 55391  70.0008 196.1807 0003009 269.0139  91.0675 14.97525466 35863,6952.682,96.159,576.639,572.455,0.0
55391.0,STARLINK-5077,PAYLOAD,2023-09-12 20:42:48,14.97522827,0.0002937,70.0009,194.667,271.854,88.2282,5.7191e-05,5.76e-06,0.0,0 STARLINK-5077,1 55391U 23014A   23255.86306572  .00000576  00000-0  57191-4 0  9992,2 55391  70.0009 194.6670 0002937 271.8540  88.2282 14.97522827 35951,6952.69,96.159,576.597,572.513,0.0
55391.0,STARLINK-5077,PAYLOAD,2023-09-13 03:07:32,14.9752934,0.0002868,70.0009,193.9953,267.7808,92.3023,0.0001238,1.355e-05,0.0,0 STARLINK-5077,1 55391U 23014A   23256.13024277  .00001355  00000-0  12380-3 0  9998,2 55391  70.0009 193.9953 0002868 267.7808  92.3023 14.97529340 35058,6952.67,96.158,576.529,572.541,0.0
55391.0,STARLINK-5077,PAYLOAD,2023-09-13 06:19:55,14.9753188,0.0002806,70.001,193.6587,267.981,92.1027,0.0001471,1.627e-05,0.0,0 STARLINK-5077,1 55391U 23014A   23256.26383230  .00001627  00000-0  14710-3 0  9990,2 55391  70.0010 193.6587 0002806 267.9810  92.1027 14.97531880 36018,6952.662,96.158,576.478,572.576,0.0
55391.0,STARLINK-5077,PAYLOAD,2023-09-13 20:45:36,14.97520688,0.0002927,70.0012,192.1445,269.4316,90.6507,-8.916e-05,-1.134e-05,0.0,0 STARLINK-5077,1 55391U 23014A   23256.86500895 -.00001134  00000-0 -89160-4 0  9991,2 55391  70.0012 192.1445 0002927 269.4316  90.6507 14.97520688 36109,6952.697,96.159,576.597,572.527,0.0
55391.0,STARLINK-5077,PAYLOAD,2023-09-14 03:10:21,14.97517634,0.0002616,70.0014,191.4725,260.405,99.6813,-9.4933e-05,-1.201e-05,0.0,0 STARLINK-5077,1 55391U 23014A   23257.13219496 -.00001201  00000-0 -94933-4 0  9995,2 55391  70.0014 191.4725 0002616 260.4050  99.6813 14.97517634 35201,6952.706,96.159,576.39,572.752,0.0
55391.0,STARLINK-5077,PAYLOAD,2023-09-14 06:22:43,14.97521342,0.0002843,70.0006,191.1346,270.8265,89.2568,-8.1126e-05,-1.04e-05,0.0,0 STARLINK-5077,1 55391U 23014A   23257.26578481 -.00001040  00000-0 -81126-4 0  9992,2 55391  70.0006 191.1346 0002843 270.8265  89.2568 14.97521342 36162,6952.695,96.159,576.536,572.583,0.0
55391.0,STARLINK-5077,PAYLOAD,2023-09-14 20:48:24,14.97514592,0.0002954,70.0004,189.6208,264.4616,95.6206,4.5753e-05,4.42e-06,0.0,0 STARLINK-5077,1 55391U 23014A   23257.86694864  .00000442  00000-0  45753-4 0  9991,2 55391  70.0004 189.6208 0002954 264.4616  95.6206 14.97514592 36250,6952.716,96.159,576.634,572.527,0.0
55391.0,STARLINK-5077,PAYLOAD,2023-09-15 01:36:57,14.97522146,0.0002981,70.0004,189.1161,265.5379,94.5439,-4.1814e-05,-5.81e-06,0.0,0 STARLINK-5077,1 55391U 23014A   23258.06733503 -.00000581  00000-0 -41814-4 0  9998,2 55391  70.0004 189.1161 0002981 265.5379  94.5439 14.97522146 35340,6952.692,96.159,576.63,572.485,0.0
55391.0,STARLINK-5077,PAYLOAD,2023-09-15 06:25:31,14.97525683,0.0002744,70.001,188.6119,263.4179,96.6667,-4.2394e-07,-9.7e-07,0.0,0 STARLINK-5077,1 55391U 23014A   23258.26771993 -.00000097  00000-0 -42394-6 0  9993,2 55391  70.0010 188.6119 0002744 263.4179  96.6667 14.97525683 36319,6952.681,96.159,576.454,572.638,0.0
55391.0,STARLINK-5077,PAYLOAD,2023-09-16 01:39:42,14.97551847,0.0002525,70.001,186.5946,266.2758,93.8112,0.00045012,5.175e-05,0.0,0 STARLINK-5077,1 55391U 23014A   23259.06924465  .00005175  00000-0  45012-3 0  9993,2 55391  70.0010 186.5946 0002525 266.2758  93.8112 14.97551847 35498,6952.6,96.157,576.221,572.71,0.0
55391.0,STARLINK-5077,PAYLOAD,2023-09-16 04:52:07,14.97523423,0.0002881,70.0008,186.258,271.0471,89.0357,0.00011781,1.285e-05,0.0,0 STARLINK-5077,1 55391U 23014A   23259.20286161  .00001285  00000-0  11781-3 0  9997,2 55391  70.0008 186.2580 0002881 271.0471  89.0357 14.97523423 35517,6952.688,96.159,576.556,572.55,0.0
55391.0,STARLINK-5077,PAYLOAD,2023-09-17 01:42:33,14.9752041,0.0002697,70.0015,184.0711,264.4087,95.6764,-8.6582e-06,-1.93e-06,0.0,0 STARLINK-5077,1 55391U 23014A   23260.07121593 -.00000193  00000-0 -86582-5 0  9993,2 55391  70.0015 184.0711 0002697 264.4087  95.6764 14.97520410 35643,6952.698,96.159,576.438,572.687,0.0
55391.0,STARLINK-5077,PAYLOAD,2023-09-17 04:54:55,14.97521749,0.0002681,70.0015,183.7347,266.7396,93.3456,8.9366e-06,1.2e-07,0.0,0 STARLINK-5077,1 55391U 23014A   23260.20480703  .00000012  00000-0  89366-5 0  9990,2 55391  70.0015 183.7347 0002681 266.7396  93.3456 14.97521749 36601,6952.693,96.159,576.422,572.694,0.0
55391.0,STARLINK-5077,PAYLOAD,2023-09-18 01:45:19,14.9752709,0.0002859,70.001,181.55,261.7861,98.2973,9.9833e-05,1.075e-05,0.0,0 STARLINK-5077,1 55391U 23014A   23261.07314655  .00001075  00000-0  99833-4 0  9997,2 55391  70.0010 181.5500 0002859 261.7861  98.2973 14.97527090 35794,6952.677,96.159,576.53,572.554,0.0
55391.0,STARLINK-5077,PAYLOAD,2023-09-18 04:57:42,14.97521822,0.0002713,70.0012,181.2132,261.4513,98.6338,0.00025707,2.913e-05,0.0,0 STARLINK-5077,1 55391U 23014A   23261.20673785  .00002913  00000-0  25707-3 0  9994,2 55391  70.0012 181.2132 0002713 261.4513  98.6338 14.97521822 36757,6952.693,96.159,576.445,572.672,0.0
55391.0,STARLINK-5077,PAYLOAD,2023-09-18 20:59:34,14.97522345,0.0002681,70.0018,179.5326,255.1007,104.9854,2.006e-05,1.42e-06,0.0,0 STARLINK-5077,1 55391U 23014A   23261.87470161  .00000142  00000-0  20060-4 0  9990,2 55391  70.0018 179.5326 0002681 255.1007 104.9854 14.97522345 36856,6952.692,96.159,576.421,572.693,0.0
55391.0,STARLINK-5077,PAYLOAD,2023-09-19 01:48:07,14.97528551,0.0002609,70.0024,179.0299,255.4616,104.6253,4.9332e-05,4.84e-06,0.0,0 STARLINK-5077,1 55391U 23014A   23262.07508486  .00000484  00000-0  49332-4 0  9997,2 55391  70.0024 179.0299 0002609 255.4616 104.6253 14.97528551 35940,6952.672,96.158,576.351,572.723,0.0
55391.0,STARLINK-5077,PAYLOAD,2023-09-20 01:50:55,14.97520399,0.000252,70.0023,176.506,248.1539,111.9351,7.4348e-05,7.77e-06,0.0,0 STARLINK-5077,1 55391U 23014A   23263.07702588  .00000777  00000-0  74348-4 0  9997,2 55391  70.0023 176.5060 0002520 248.1539 111.9351 14.97520399 36091,6952.698,96.159,576.315,572.811,0.0
